STARLINK-30112          
1 56306U 23056W   24288.66932828 -.00000241  00000+0 -27511-5 0  9993
2 56306  43.0017 106.9045 0001022 299.0077  61.0663 15.02534635 83211
STARLINK-6038           
1 56317U 23058A   24288.71999844  .00001623  00000+0  13096-3 0  9998
2 56317  97.6527 287.7699 0001662  96.2185 263.9228 15.01256201 81110
STARLINK-5954           
1 56318U 23058B   24288.71630030  .00005813  00000+0  45674-3 0  9990
2 56318  97.6535 287.7708 0000879  95.4397 264.6928 15.01262892 81114
STARLINK-6039           
1 56319U 23058C   24288.78109039  .00000540  00000+0  46647-4 0  9992
2 56319  97.6539 287.8380 0000743  80.0350 280.0958 15.01270400 81125
STARLINK-5988           
1 56320U 23058D   24288.72024841  .00002945  00000+0  23384-3 0  9998
2 56320  97.6526 287.7704 0001551  82.2302 277.9098 15.01254007 81126
STARLINK-5876           
1 56321U 23058E   24288.24232834 -.00011374  00000+0 -88269-3 0  9990
2 56321  97.6536 287.3187 0001933 181.2643 178.8577 15.01245170 81044
STARLINK-6033           
1 56322U 23058F   24288.71814489  .00004306  00000+0  33961-3 0  9999
2 56322  97.6533 287.7692 0001439  98.4995 261.6393 15.01264828 81113
STARLINK-6035           
1 56323U 23058G   24288.44413275  .00006824  00000+0  53533-3 0  9992
2 56323  97.6539 287.5139 0001169 178.0453 182.0776 15.01261093 81064
STARLINK-6034           
1 56324U 23058H   24288.77924576  .00005494  00000+0  43192-3 0  9992
2 56324  97.6536 287.8400 0000533 107.8683 252.2600 15.01264646 81125
STARLINK-5981           
1 56325U 23058J   24288.50337341  .00003208  00000+0  25426-3 0  9993
2 56325  97.6544 287.5887 0001640 151.4964 208.6350 15.01256451 80949
STARLINK-5980           
1 56326U 23058K   24288.77948798  .00005563  00000+0  43729-3 0  9999
2 56326  97.6536 287.8399 0000685 100.6650 259.4652 15.01267250 81127
STARLINK-5997           
1 56327U 23058L   24288.49807123  .00003304  00000+0  26175-3 0  9992
2 56327  97.6558 287.5981 0001707 102.5340 257.6075 15.01252176 81433
STARLINK-5992           
1 56328U 23058M   24288.23861385 -.00000810  00000+0 -58454-4 0  9992
2 56328  97.6542 287.3232 0002251 149.6449 210.4906 15.01265438 80907
STARLINK-5984           
1 56329U 23058N   24288.50152288  .00001626  00000+0  13117-3 0  9998
2 56329  97.6541 287.5918 0002114 128.7849 231.3565 15.01255773 80948
STARLINK-5967           
1 56330U 23058P   24288.23888621  .00014850  00000+0  11586-2 0  9997
2 56330  97.6540 287.3232 0002151 152.5297 207.6041 15.01250373 81395
STARLINK-5991           
1 56331U 23058Q   24288.49596285  .00002581  00000+0  20544-3 0  9991
2 56331  97.6574 287.6036 0001483  96.0899 264.0494 15.01259346 81438
STARLINK-5093           
1 56332U 23058R   24288.44043485  .00006210  00000+0  48776-3 0  9996
2 56332  97.6538 287.5187 0001943 160.7087 199.4211 15.01250755 81426
STARLINK-5553           
1 56333U 23058S   24288.49411052  .00002249  00000+0  17966-3 0  9996
2 56333  97.6576 287.6095 0001722  92.0474 268.0947 15.01259286 80943
STARLINK-5548           
1 56334U 23058T   24288.49781639  .00001155  00000+0  94474-4 0  9993
2 56334  97.6561 287.5984 0001519 103.5028 256.6365 15.01261918 81438
STARLINK-5559           
1 56335U 23058U   24288.48880379  .00002696  00000+0  21446-3 0  9993
2 56335  97.6561 287.6237 0001939  94.6059 265.5386 15.01255735 81433
STARLINK-5562           
1 56336U 23058V   24288.49967877  .00002080  00000+0  16655-3 0  9997
2 56336  97.6546 287.5955 0001796 116.0220 244.1189 15.01253045 80944
STARLINK-5561           
1 56337U 23058W   24288.49065220  .00002687  00000+0  21375-3 0  9997
2 56337  97.6569 287.6192 0001549  97.4904 262.6496 15.01259195 81434
STARLINK-5554           
1 56338U 23058X   24288.49226141  .00002029  00000+0  16248-3 0  9992
2 56338  97.6570 287.6150 0001474  93.4197 266.7196 15.01268143 81433
STARLINK-5552           
1 56339U 23058Y   24288.88476467  .00002910  00000+0  23106-3 0  9994
2 56339  97.6557 288.0251 0001972  92.4625 267.6825 15.01262661 81498
STARLINK-5540           
1 56340U 23058Z   24288.49040704  .00002502  00000+0  19935-3 0  9996
2 56340  97.6562 287.6203 0002102  88.5162 271.6303 15.01260386 80943
STARLINK-5543           
1 56341U 23058AA  24288.48855835  .00003443  00000+0  27250-3 0  9999
2 56341  97.6561 287.6245 0001724  91.9581 268.1840 15.01258001 81434
STARLINK-5955           
1 56342U 23058AB  24288.48670729  .00001529  00000+0  12358-3 0  9993
2 56342  97.6555 287.6273 0002040  94.3846 265.7611 15.01258164 81431
STARLINK-5976           
1 56343U 23058AC  24288.74592138  .00006672  00000+0  52355-3 0  9995
2 56343  97.6547 287.9030 0002951  89.7519 270.4043 15.01257094 81470
STARLINK-5974           
1 56344U 23058AD  24288.68297261  .00007709  00000+0  60424-3 0  9996
2 56344  97.6554 287.8310 0001930  88.4463 271.6982 15.01252626 81469
STARLINK-5979           
1 56345U 23058AE  24288.74405957  .00002362  00000+0  18842-3 0  9994
2 56345  97.6547 287.9058 0003512  84.1231 276.0394 15.01258570 81477
STARLINK-5837           
1 56346U 23058AF  24288.48115390  .00001763  00000+0  14182-3 0  9992
2 56346  97.6552 287.6368 0002777  90.9113 269.2429 15.01259316 81439
STARLINK-5829           
1 56347U 23058AG  24288.74221884  .00005156  00000+0  40580-3 0  9999
2 56347  97.6546 287.9082 0003673  86.5055 273.6589 15.01252306 81473
STARLINK-5888           
1 56348U 23058AH  24288.68320257  .00002617  00000+0  20826-3 0  9997
2 56348  97.6554 287.8309 0002144  84.4452 275.7017 15.01259988 81465
STARLINK-5887           
1 56349U 23058AJ  24288.73666125  .00002823  00000+0  22429-3 0  9991
2 56349  97.6543 287.9143 0004531  70.5184 289.6529 15.01254058 81477
STARLINK-5886           
1 56350U 23058AK  24288.73851694  .00004888  00000+0  38485-3 0  9992
2 56350  97.6541 287.9126 0004433  73.2941 286.8770 15.01258586 81477
STARLINK-5891           
1 56351U 23058AL  24288.46819980  .00001065  00000+0  87472-4 0  9990
2 56351  97.6536 287.6528 0004818  64.8035 295.3688 15.01254154 81438
STARLINK-5885           
1 56352U 23058AM  24288.74037406  .00002432  00000+0  19393-3 0  9992
2 56352  97.6545 287.9104 0003981  74.3484 285.8179 15.01252669 81478
STARLINK-5874           
1 56353U 23058AN  24288.72185389  .00008176  00000+0  64033-3 0  9997
2 56353  97.6519 287.9266 0002294  83.6687 276.4798 15.01262732 81478
STARLINK-5877           
1 56354U 23058AP  24288.74245634  .00003053  00000+0  24215-3 0  9997
2 56354  97.6546 287.9082 0003817  81.3689 278.7968 15.01258443 81472
STARLINK-5533           
1 56355U 23058AQ  24288.72926000  .00002959  00000+0  23497-3 0  9994
2 56355  97.6531 287.9214 0003162  64.8998 295.2554 15.01243296 81471
STARLINK-5535           
1 56356U 23058AR  24288.73110121  .00002139  00000+0  17105-3 0  9994
2 56356  97.6532 287.9195 0003976  62.5799 297.5829 15.01255183 81476
STARLINK-5538           
1 56357U 23058AS  24288.72949221  .00003721  00000+0  29410-3 0  9995
2 56357  97.6531 287.9210 0003317  64.1683 295.9883 15.01260487 81478
STARLINK-5482           
1 56358U 23058AT  24288.73295911  .00003432  00000+0  27166-3 0  9992
2 56358  97.6535 287.9176 0004646  69.8857 290.2867 15.01254313 81476
STARLINK-5551           
1 56359U 23058AU  24288.72763786  .00002401  00000+0  19144-3 0  9994
2 56359  97.6531 287.9232 0002859  67.6666 292.4861 15.01257654 81473
STARLINK-5549           
1 56360U 23058AV  24288.72740965  .00009275  00000+0  72621-3 0  9995
2 56360  97.6535 287.9232 0002871  64.5775 295.5746 15.01235053 81475
STARLINK-5550           
1 56361U 23058AW  24288.72553890  .00001769  00000+0  14229-3 0  9995
2 56361  97.6526 287.9249 0002432  66.9961 293.1520 15.01259688 81474
STARLINK-5972           
1 56362U 23058AX  24288.72368447  .00002021  00000+0  16188-3 0  9996
2 56362  97.6521 287.9252 0001420  90.6135 269.5252 15.01256958 81473
STARLINK-6156           
1 56374U 23061A   24288.81701847 -.00000846  00000+0 -47549-4 0  9999
2 56374  43.0035  93.6221 0001318 273.3586  86.7106 15.02525371 81000
STARLINK-6158           
1 56375U 23061B   24288.81146947  .00003142  00000+0  24758-3 0  9990
2 56375  43.0034  93.5784 0001436 266.4914  93.5764 15.02535447 80192
STARLINK-6188           
1 56376U 23061C   24288.86581918  .00008754  00000+0  64567-3 0  9993
2 56376  43.0012  93.1301 0001724 286.6957  73.3696 15.03500774 79915
STARLINK-6189           
1 56377U 23061D   24288.74166484  .00007054  00000+0  53662-3 0  9994
2 56377  43.0012  93.9135 0001460 261.7036  98.3641 15.02543521 79898
STARLINK-6191           
1 56378U 23061E   24288.86463259  .00001758  00000+0  14520-3 0  9993
2 56378  43.0038  93.1134 0001403 254.3951 105.6736 15.02531021 80205
STARLINK-6157           
1 56379U 23061F   24288.73056132  .00001569  00000+0  13121-3 0  9994
2 56379  43.0025  93.8326 0001210 270.0465  90.0239 15.02535579 80996
STARLINK-6161           
1 56380U 23061G   24288.73389780  .00002480  00000+0  19863-3 0  9996
2 56380  43.0033  93.8551 0001568 266.7676  93.2987 15.02527387 79899
STARLINK-6159           
1 56381U 23061H   24288.73723636  .00012155  00000+0  91307-3 0  9992
2 56381  42.9994  93.8775 0001676 290.2910  69.7752 15.02544874 79893
STARLINK-6160           
1 56382U 23061J   24288.85797357  .00007966  00000+0  60412-3 0  9994
2 56382  43.0017  93.0642 0001025 294.1024  65.9711 15.02536274 80209
STARLINK-6166           
1 56383U 23061K   24288.86018769  .00001513  00000+0  12702-3 0  9990
2 56383  43.0035  93.0823 0001290 270.1549  89.9145 15.02538831 80209
STARLINK-6153           
1 56384U 23061L   24288.51780861  .00002018  00000+0  16438-3 0  9993
2 56384  43.0036  94.8120 0001242 277.2907  82.7794 15.02535864 79867
STARLINK-6173           
1 56385U 23061M   24288.85465276  .00005163  00000+0  39702-3 0  9994
2 56385  43.0023  93.0389 0001209 259.9761 100.0945 15.02534400 80207
